NORAD_CAT_ID,OBJECT_NAME,OBJECT_TYPE,EPOCH,MEAN_MOTION,ECCENTRICITY,INCLINATION,RA_OF_ASC_NODE,ARG_OF_PERICENTER,MEAN_ANOMALY,BSTAR,MEAN_MOTION_DOT,MEAN_MOTION_DDOT,TLE_LINE0,TLE_LINE1,TLE_LINE2,SEMIMAJOR_AXIS,PERIOD,APOGEE,PERIGEE,DECAYED
51791.0,STARLINK-3602,PAYLOAD,2023-06-25 05:14:54,15.08846175,0.0001232,53.2178,106.5364,101.2978,258.8153,-1.4537e-05,-5.19e-06,0.0,0 STARLINK-3602,1 51791U 22017Z   23176.21869110 -.00000519  00000-0 -14537-4 0  9993,2 51791  53.2178 106.5364 0001232 101.2978 258.8153 15.08846175 74695,6917.862,95.437,540.579,538.874,0.0
51791.0,STARLINK-3602,PAYLOAD,2023-06-26 01:54:55,15.08844156,0.0001063,53.2172,102.6741,89.2404,270.871,-1.5708e-05,-5.38e-06,0.0,0 STARLINK-3602,1 51791U 22017Z   23177.07981342 -.00000538  00000-0 -15708-4 0  9992,2 51791  53.2172 102.6741 0001063  89.2404 270.8710 15.08844156 74821,6917.868,95.437,540.468,538.997,0.0
51791.0,STARLINK-3602,PAYLOAD,2023-06-26 11:27:15,15.08838502,0.0001061,53.2179,100.8905,85.9461,274.1652,-9.8945e-05,-1.862e-05,0.0,0 STARLINK-3602,1 51791U 22017Z   23177.47725952 -.00001862  00000-0 -98945-4 0  9994,2 51791  53.2179 100.8905 0001061  85.9461 274.1652 15.08838502 74880,6917.885,95.438,540.484,539.016,0.0
51791.0,STARLINK-3602,PAYLOAD,2023-06-28 01:36:33,15.08808843,0.0001099,53.2175,93.7536,81.7411,278.3706,-0.00021106,-3.642e-05,0.0,0 STARLINK-3602,1 51791U 22017Z   23179.06705074 -.00003642  00000-0 -21106-3 0  9996,2 51791  53.2175  93.7536 0001099  81.7411 278.3706 15.08808843 75125,6917.976,95.44,540.601,539.08,0.0
51791.0,STARLINK-3602,PAYLOAD,2023-06-29 03:02:42,15.08837252,0.0001154,53.2178,88.994,78.0483,282.0639,4.5094e-05,4.3e-06,0.0,0 STARLINK-3602,1 51791U 22017Z   23180.12687682  .00000430  00000-0  45094-4 0  9992,2 51791  53.2178  88.9940 0001154  78.0483 282.0639 15.08837252 75283,6917.889,95.438,540.552,538.955,0.0
51791.0,STARLINK-3602,PAYLOAD,2023-06-30 10:50:24,15.08839325,0.0001099,53.2177,83.0468,82.0672,278.0445,0.00030182,4.519e-05,0.0,0 STARLINK-3602,1 51791U 22017Z   23181.45166729  .00004519  00000-0  30182-3 0  9996,2 51791  53.2177  83.0468 0001099  82.0672 278.0445 15.08839325 75481,6917.882,95.438,540.508,538.987,0.0
51791.0,STARLINK-3602,PAYLOAD,2023-07-01 10:41:11,15.08844371,0.0001099,53.2159,78.5881,91.0116,269.1002,-1.9557e-05,-5.99e-06,0.0,0 STARLINK-3602,1 51791U 22017Z   23182.44527045 -.00000599  00000-0 -19557-4 0  9998,2 51791  53.2159  78.5881 0001099  91.0116 269.1002 15.08844371 75636,6917.867,95.437,540.492,538.972,0.0
51791.0,STARLINK-3602,PAYLOAD,2023-07-02 21:39:39,15.08841181,0.0001344,53.2171,72.045,95.218,264.8966,5.4652e-05,5.82e-06,0.0,0 STARLINK-3602,1 51791U 22017Z   23183.90254559  .00000582  00000-0  54652-4 0  9992,2 51791  53.2171  72.0450 0001344  95.2180 264.8966 15.08841181 75852,6917.877,95.437,540.672,538.812,0.0
51791.0,STARLINK-3602,PAYLOAD,2023-07-03 16:44:18,15.08834353,0.0001291,53.217,68.4757,96.6382,263.4757,3.5506e-05,2.77e-06,0.0,0 STARLINK-3602,1 51791U 22017Z   23184.69743073  .00000277  00000-0  35506-4 0  9991,2 51791  53.2170  68.4757 0001291  96.6382 263.4757 15.08834353 75979,6917.898,95.438,540.656,538.87,0.0
51791.0,STARLINK-3602,PAYLOAD,2023-07-04 02:16:36,15.08841916,0.0001204,53.2176,66.6932,92.5282,267.5848,5.5339e-05,5.93e-06,0.0,0 STARLINK-3602,1 51791U 22017Z   23185.09486618  .00000593  00000-0  55339-4 0  9992,2 51791  53.2176  66.6932 0001204  92.5282 267.5848 15.08841916 76035,6917.875,95.437,540.572,538.907,0.0
51791.0,STARLINK-3602,PAYLOAD,2023-07-04 16:35:05,15.08837231,0.0001173,53.2178,64.0163,94.0221,266.0905,2.5801e-06,-2.47e-06,0.0,0 STARLINK-3602,1 51791U 22017Z   23185.69103180 -.00000247  00000-0  25801-5 0  9997,2 51791  53.2178  64.0163 0001173  94.0221 266.0905 15.08837231 76123,6917.889,95.438,540.565,538.942,0.0
51791.0,STARLINK-3602,PAYLOAD,2023-07-06 01:58:10,15.08841619,0.0001084,53.2178,57.772,98.3919,261.7196,6.967e-05,8.21e-06,0.0,0 STARLINK-3602,1 51791U 22017Z   23187.08206950  .00000821  00000-0  69670-4 0  9999,2 51791  53.2178  57.7720 0001084  98.3919 261.7196 15.08841619 76335,6917.875,95.437,540.49,538.991,0.0
51791.0,STARLINK-3602,PAYLOAD,2023-07-07 16:07:26,15.08835641,0.0001248,53.2184,50.6362,97.6685,262.4449,5.2274e-05,5.44e-06,0.0,0 STARLINK-3602,1 51791U 22017Z   23188.67183667  .00000544  00000-0  52274-4 0  9998,2 51791  53.2184  50.6362 0001248  97.6685 262.4449 15.08835641 76573,6917.894,95.438,540.622,538.895,0.0
51791.0,STARLINK-3602,PAYLOAD,2023-07-08 20:44:22,15.0884389,0.0001278,53.2171,45.2832,88.8616,271.2523,4.7744e-05,4.72e-06,0.0,0 STARLINK-3602,1 51791U 22017Z   23189.86415178  .00000472  00000-0  47744-4 0  9991,2 51791  53.2171  45.2832 0001278  88.8616 271.2523 15.08843890 76756,6917.868,95.437,540.618,538.849,0.0
51791.0,STARLINK-3602,PAYLOAD,2023-07-09 18:59:46,15.08838423,0.0001096,53.2181,41.1203,81.8722,278.2394,4.0784e-05,3.61e-06,0.0,0 STARLINK-3602,1 51791U 22017Z   23190.79151584  .00000361  00000-0  40784-4 0  9997,2 51791  53.2181  41.1203 0001096  81.8722 278.2394 15.08838423 76897,6917.885,95.438,540.508,538.992,0.0
51791.0,STARLINK-3602,PAYLOAD,2023-07-10 23:36:43,15.08843773,0.0001188,53.2183,35.7665,95.3207,264.7921,5.5277e-05,5.92e-06,0.0,0 STARLINK-3602,1 51791U 22017Z   23191.98383111  .00000592  00000-0  55277-4 0  9991,2 51791  53.2183  35.7665 0001188  95.3207 264.7921 15.08843773 77071,6917.869,95.437,540.556,538.912,0.0
51791.0,STARLINK-3602,PAYLOAD,2023-07-12 05:49:02,15.08841186,0.0001157,53.2187,30.1154,91.9759,268.1366,2.8278e-05,1.62e-06,0.0,0 STARLINK-3602,1 51791U 22017Z   23193.24239357  .00000162  00000-0  28278-4 0  9998,2 51791  53.2187  30.1154 0001157  91.9759 268.1366 15.08841186 77265,6917.877,95.437,540.542,538.941,0.0
51791.0,STARLINK-3602,PAYLOAD,2023-07-12 18:32:08,15.08832448,0.0001218,53.2193,27.739,91.3449,268.7683,-7.2952e-05,-1.448e-05,0.0,0 STARLINK-3602,1 51791U 22017Z   23193.77232449 -.00001448  00000-0 -72952-4 0  9999,2 51791  53.2193  27.7390 0001218  91.3449 268.7683 15.08832448 77342,6917.903,95.438,540.611,538.926,0.0
51791.0,STARLINK-3602,PAYLOAD,2023-07-13 16:47:32,15.08845326,0.0001236,53.2196,23.576,97.5686,262.5446,4.5667e-05,4.39e-06,0.0,0 STARLINK-3602,1 51791U 22017Z   23194.69967595  .00000439  00000-0  45667-4 0  9998,2 51791  53.2196  23.5760 0001236  97.5686 262.5446 15.08845326 77484,6917.864,95.437,540.584,538.874,0.0
51791.0,STARLINK-3602,PAYLOAD,2023-07-14 05:30:37,15.088346,5.74e-05,53.2203,21.199,183.4611,176.6378,-3.7403e-05,-8.83e-06,0.0,0 STARLINK-3602,1 51791U 22017Z   23195.22959925 -.00000883  00000-0 -37403-4 0  9990,2 51791  53.2203  21.1990 0000574 183.4611 176.6378 15.08834600 77560,6917.897,95.438,540.159,539.365,0.0
51791.0,STARLINK-3602,PAYLOAD,2023-07-14 19:49:05,15.08842188,0.0001075,53.218,18.5194,90.2095,269.902,0.00015722,2.215e-05,0.0,0 STARLINK-3602,1 51791U 22017Z   23195.82575597  .00002215  00000-0  15722-3 0  9993,2 51791  53.2180  18.5194 0001075  90.2095 269.9020 15.08842188 77658,6917.874,95.437,540.482,538.995,0.0
51791.0,STARLINK-3602,PAYLOAD,2023-07-15 11:42:57,15.08836748,7.48e-05,53.2169,15.5491,89.5426,270.5652,9.5864e-05,1.238e-05,0.0,0 STARLINK-3602,1 51791U 22017Z   23196.48816058  .00001238  00000-0  95864-4 0  9996,2 51791  53.2169  15.5491 0000748  89.5426 270.5652 15.08836748 77752,6917.89,95.438,540.273,539.238,0.0
51791.0,STARLINK-3602,PAYLOAD,2023-07-15 22:50:38,15.08847024,0.0001158,53.2186,13.4654,88.911,271.2015,2.8965e-05,1.73e-06,0.0,0 STARLINK-3602,1 51791U 22017Z   23196.95183693  .00000173  00000-0  28965-4 0  9995,2 51791  53.2186  13.4654 0001158  88.9110 271.2015 15.08847024 77826,6917.859,95.437,540.525,538.923,0.0
51791.0,STARLINK-3602,PAYLOAD,2023-07-16 05:12:12,15.08835828,0.0001163,53.2189,12.2739,90.9742,269.1383,-7.8911e-05,-1.543e-05,0.0,0 STARLINK-3602,1 51791U 22017Z   23197.21680680 -.00001543  00000-0 -78911-4 0  9993,2 51791  53.2189  12.2739 0001163  90.9742 269.1383 15.08835828 77867,6917.893,95.438,540.563,538.954,0.0
51791.0,STARLINK-3602,PAYLOAD,2023-07-16 21:06:02,15.0884495,0.0001036,53.2189,9.3022,92.1898,267.9212,1.354e-05,-7.2e-07,0.0,0 STARLINK-3602,1 51791U 22017Z   23197.87920059 -.00000072  00000-0  13540-4 0  9994,2 51791  53.2189   9.3022 0001036  92.1898 267.9212 15.08844950 77968,6917.865,95.437,540.447,539.014,0.0
51791.0,STARLINK-3602,PAYLOAD,2023-07-18 11:15:18,15.08838326,0.0001066,53.2179,2.1651,81.0652,279.0461,0.0001294,1.772e-05,0.0,0 STARLINK-3602,1 51791U 22017Z   23199.46896538  .00001772  00000-0  12940-3 0  9994,2 51791  53.2179   2.1651 0001066  81.0652 279.0461 15.08838326 78202,6917.886,95.438,540.488,539.013,0.0
51791.0,STARLINK-3602,PAYLOAD,2023-07-18 22:22:59,15.08851611,0.0001155,53.2182,0.0833,83.4838,276.6286,0.00023243,3.414e-05,0.0,0 STARLINK-3602,1 51791U 22017Z   23199.93263871  .00003414  00000-0  23243-3 0  9997,2 51791  53.2182   0.0833 0001155  83.4838 276.6286 15.08851611 78273,6917.845,95.437,540.509,538.911,0.0
51791.0,STARLINK-3602,PAYLOAD,2023-07-19 11:06:05,15.0883022,0.0001104,53.2182,357.7052,93.8056,266.3063,-0.00015432,-2.742e-05,0.0,0 STARLINK-3602,1 51791U 22017Z   23200.46256761 -.00002742  00000-0 -15432-3 0  9994,2 51791  53.2182 357.7052 0001104  93.8056 266.3063 15.08830220 78350,6917.91,95.438,540.539,539.012,0.0
51791.0,STARLINK-3602,PAYLOAD,2023-07-20 18:53:48,15.08854019,0.0001107,53.2186,351.7577,102.2181,257.8935,0.00075938,0.00011823,0.0,0 STARLINK-3602,1 51791U 22017Z   23201.78736753  .00011823  00000-0  75938-3 0  9999,2 51791  53.2186 351.7577 0001107 102.2181 257.8935 15.08854019 78554,6917.838,95.437,540.468,538.937,0.0
51791.0,STARLINK-3602,PAYLOAD,2023-07-24 08:44:38,15.08843596,0.0001399,53.2174,335.7017,80.816,279.299,0.00037001,5.606e-05,0.0,0 STARLINK-3602,1 51791U 22017Z   23205.36433282  .00005606  00000-0  37001-3 0  9999,2 51791  53.2174 335.7017 0001399  80.8160 279.2990 15.08843596 79090,6917.869,95.437,540.702,538.767,0.0
